start=new Date('2022-04-16T00:00:00.000Z').valueOf();
sats=[{"OBJECT_ID":"2020-088A","ELEMENT_SET_NO":"999","CENTER_NAME":"EARTH","GP_ID":"201341803","OBJECT_TYPE":"PAYLOAD","MEAN_MOTION":"15.06404070","NORAD_CAT_ID":"47122","TLE_LINE1":"1 47122U 20088A   22105.81047598  .00003790  00000-0  27320-3 0  9992","LAUNCH_DATE":"2020-11-25","EPHEMERIS_TYPE":"0","PERIAPSIS":"546.063","MEAN_ELEMENT_THEORY":"SGP4","COUNTRY_CODE":"US","REV_AT_EPOCH":"7722","RA_OF_ASC_NODE":"213.6491","MEAN_ANOMALY":"292.2582","BSTAR":"0.00027320000000","TLE_LINE2":"2 47122  53.0535 213.6491 0001644  67.8581 292.2582 15.06404070 77220","FILE":"3403567","SEMIMAJOR_AXIS":"6925.336","PERIOD":"95.592","OBJECT_NAME":"STARLINK-1777","SITE":"AFETR","MEAN_MOTION_DDOT":"0.0000000000000","MEAN_MOTION_DOT":"0.00003790","TIME_SYSTEM":"UTC","REF_FRAME":"TEME","DECAY_DATE":null,"RCS_SIZE":"LARGE","INCLINATION":"53.0535","APOAPSIS":"548.340","CLASSIFICATION_TYPE":"U","ARG_OF_PERICENTER":"67.8581","ECCENTRICITY":"0.00016440","EPOCH":"2022-04-15T19:27:05.124672"},{"DECAY_DATE":null,"RCS_SIZE":"LARGE","REF_FRAME":"TEME","TIME_SYSTEM":"UTC","MEAN_MOTION_DDOT":"0.0000000000000","MEAN_MOTION_DOT":"0.00003151","SITE":"AFETR","OBJECT_NAME":"STARLINK-1785","PERIOD":"95.591","SEMIMAJOR_AXIS":"6925.290","EPOCH":"2022-04-15T17:30:55.852704","ECCENTRICITY":"0.00016450","ARG_OF_PERICENTER":"64.5678","APOAPSIS":"548.295","CLASSIFICATION_TYPE":"U","INCLINATION":"53.0541","REV_AT_EPOCH":"7714","COUNTRY_CODE":"US","MEAN_ELEMENT_THEORY":"SGP4","PERIAPSIS":"546.016","LAUNCH_DATE":"2020-11-25","EPHEMERIS_TYPE":"0","TLE_LINE1":"1 47124U 20088C   22105.72981311  .00003151  00000-0  23023-3 0  9991","MEAN_MOTION":"15.06418981","NORAD_CAT_ID":"47124","OBJECT_TYPE":"PAYLOAD","GP_ID":"201342553","ELEMENT_SET_NO":"999","CENTER_NAME":"EARTH","OBJECT_ID":"2020-088C","FILE":"3403567","TLE_LINE2":"2 47124  53.0541 219.0275 0001645  64.5678 295.5481 15.06418981 77142","BSTAR":"0.00023023000000","MEAN_ANOMALY":"295.5481","RA_OF_ASC_NODE":"219.0275"},{"OBJECT_NAME":"STARLINK-1812","PERIOD":"95.591","SITE":"AFETR","SEMIMAJOR_AXIS":"6925.306","REF_FRAME":"TEME","TIME_SYSTEM":"UTC","RCS_SIZE":"LARGE","DECAY_DATE":null,"MEAN_MOTION_DOT":"0.00002093","MEAN_MOTION_DDOT":"0.0000000000000","APOAPSIS":"548.339","CLASSIFICATION_TYPE":"U","INCLINATION":"53.0535","EPOCH":"2022-04-15T18:28:41.594304","ARG_OF_PERICENTER":"52.0145","ECCENTRICITY":"0.00016870","TLE_LINE1":"1 47126U 20088E   22105.76992586  .00002093  00000-0  15934-3 0  9999","ELEMENT_SET_NO":"999","CENTER_NAME":"EARTH","OBJECT_ID":"2020-088E","NORAD_CAT_ID":"47126","MEAN_MOTION":"15.06414036","OBJECT_TYPE":"PAYLOAD","GP_ID":"201341301","REV_AT_EPOCH":"7722","MEAN_ELEMENT_THEORY":"SGP4","COUNTRY_CODE":"US","EPHEMERIS_TYPE":"0","LAUNCH_DATE":"2020-11-25","PERIAPSIS":"546.002","RA_OF_ASC_NODE":"213.8343","TLE_LINE2":"2 47126  53.0535 213.8343 0001687  52.0145 308.0996 15.06414036 77229","FILE":"3403567","BSTAR":"0.00015934000000","MEAN_ANOMALY":"308.0996"},{"COUNTRY_CODE":"US","MEAN_ELEMENT_THEORY":"SGP4","REV_AT_EPOCH":"7749","EPHEMERIS_TYPE":"0","LAUNCH_DATE":"2020-11-25","PERIAPSIS":"546.060","TLE_LINE1":"1 47128U 20088G   22105.72753864  .00000183  00000-0  31185-4 0  9996","OBJECT_ID":"2020-088G","CENTER_NAME":"EARTH","ELEMENT_SET_NO":"999","OBJECT_TYPE":"PAYLOAD","GP_ID":"201341551","MEAN_MOTION":"15.06412958","NORAD_CAT_ID":"47128","TLE_LINE2":"2 47128  53.0532 194.0365 0001609  49.5831 310.5298 15.06412958 77492","FILE":"3403567","BSTAR":"0.00003118500000","MEAN_ANOMALY":"310.5298","RA_OF_ASC_NODE":"194.0365","TIME_SYSTEM":"UTC","REF_FRAME":"TEME","DECAY_DATE":null,"RCS_SIZE":"LARGE","MEAN_MOTION_DOT":"0.00000183","MEAN_MOTION_DDOT":"0.0000000000000","PERIOD":"95.591","OBJECT_NAME":"STARLINK-1837","SITE":"AFETR","SEMIMAJOR_AXIS":"6925.309","EPOCH":"2022-04-15T17:27:39.338496","ECCENTRICITY":"0.00016090","ARG_OF_PERICENTER":"49.5831","CLASSIFICATION_TYPE":"U","APOAPSIS":"548.288","INCLINATION":"53.0532"},{"APOAPSIS":"548.481","CLASSIFICATION_TYPE":"U","INCLINATION":"53.0543","EPOCH":"2022-04-15T14:57:42.948000","ECCENTRICITY":"0.00018120","ARG_OF_PERICENTER":"53.5394","PERIOD":"95.592","OBJECT_NAME":"STARLINK-1838","SITE":"AFETR","SEMIMAJOR_AXIS":"6925.361","TIME_SYSTEM":"UTC","REF_FRAME":"TEME","DECAY_DATE":null,"RCS_SIZE":"LARGE","MEAN_MOTION_DOT":"-0.00002277","MEAN_MOTION_DDOT":"0.0000000000000","RA_OF_ASC_NODE":"204.4985","TLE_LINE2":"2 47129  53.0543 204.4985 0001812  53.5394 306.5762 15.06395978 77341","FILE":"3403567","MEAN_ANOMALY":"306.5762","BSTAR":"-0.00013400000000","TLE_LINE1":"1 47129U 20088H   22105.62341375 -.00002277  00000-0 -13400-3 0  9993","OBJECT_ID":"2020-088H","ELEMENT_SET_NO":"999","CENTER_NAME":"EARTH","GP_ID":"201342303","OBJECT_TYPE":"PAYLOAD","NORAD_CAT_ID":"47129","MEAN_MOTION":"15.06395978","MEAN_ELEMENT_THEORY":"SGP4","COUNTRY_CODE":"US","REV_AT_EPOCH":"7734","EPHEMERIS_TYPE":"0","LAUNCH_DATE":"2020-11-25","PERIAPSIS":"545.971"},{"ARG_OF_PERICENTER":"36.8045","ECCENTRICITY":"0.00022100","EPOCH":"2022-04-15T19:20:26.485440","INCLINATION":"53.0540","APOAPSIS":"548.738","CLASSIFICATION_TYPE":"U","MEAN_MOTION_DOT":"-0.00001627","MEAN_MOTION_DDOT":"0.0000000000000","TIME_SYSTEM":"UTC","REF_FRAME":"TEME","DECAY_DATE":null,"RCS_SIZE":"LARGE","SEMIMAJOR_AXIS":"6925.343","PERIOD":"95.592","OBJECT_NAME":"STARLINK-1839","SITE":"AFETR","BSTAR":"-0.00009030200000","MEAN_ANOMALY":"323.3095","TLE_LINE2":"2 47130  53.0540 223.6696 0002210  36.8045 323.3095 15.06401950 77087","FILE":"3403567","RA_OF_ASC_NODE":"223.6696","LAUNCH_DATE":"2020-11-25","EPHEMERIS_TYPE":"0","PERIAPSIS":"545.677","MEAN_ELEMENT_THEORY":"SGP4","COUNTRY_CODE":"US","REV_AT_EPOCH":"7708","OBJECT_ID":"2020-088J","ELEMENT_SET_NO":"999","CENTER_NAME":"EARTH","OBJECT_TYPE":"PAYLOAD","GP_ID":"201342054","NORAD_CAT_ID":"47130","MEAN_MOTION":"15.06401950","TLE_LINE1":"1 47130U 20088J   22105.80586210 -.00001627  00000-0 -90302-4 0  9999"},{"SEMIMAJOR_AXIS":"6925.311","SITE":"AFETR","PERIOD":"95.591","OBJECT_NAME":"STARLINK-1843","MEAN_MOTION_DOT":"0.00008020","MEAN_MOTION_DDOT":"0.0000000000000","DECAY_DATE":null,"RCS_SIZE":"LARGE","TIME_SYSTEM":"UTC","REF_FRAME":"TEME","INCLINATION":"53.0523","APOAPSIS":"548.331","CLASSIFICATION_TYPE":"U","ECCENTRICITY":"0.00016670","ARG_OF_PERICENTER":"65.2687","EPOCH":"2022-04-15T17:58:10.442208","OBJECT_TYPE":"PAYLOAD","GP_ID":"201340802","MEAN_MOTION":"15.06412223","NORAD_CAT_ID":"47133","OBJECT_ID":"2020-088M","ELEMENT_SET_NO":"999","CENTER_NAME":"EARTH","TLE_LINE1":"1 47133U 20088M   22105.74873197  .00008020  00000-0  55648-3 0  9993","PERIAPSIS":"546.022","LAUNCH_DATE":"2020-11-25","EPHEMERIS_TYPE":"0","COUNTRY_CODE":"US","MEAN_ELEMENT_THEORY":"SGP4","REV_AT_EPOCH":"7735","RA_OF_ASC_NODE":"203.9279","MEAN_ANOMALY":"294.8475","BSTAR":"0.00055648000000","FILE":"3403567","TLE_LINE2":"2 47133  53.0523 203.9279 0001667  65.2687 294.8475 15.06412223 77351"},{"PERIAPSIS":"545.973","LAUNCH_DATE":"2020-11-25","EPHEMERIS_TYPE":"0","REV_AT_EPOCH":"7722","COUNTRY_CODE":"US","MEAN_ELEMENT_THEORY":"SGP4","NORAD_CAT_ID":"47134","MEAN_MOTION":"15.06422147","OBJECT_TYPE":"PAYLOAD","GP_ID":"201341052","ELEMENT_SET_NO":"999","CENTER_NAME":"EARTH","OBJECT_ID":"2020-088N","TLE_LINE1":"1 47134U 20088N   22105.78834911  .00005261  00000-0  37161-3 0  9993","BSTAR":"0.00037161000000","MEAN_ANOMALY":"304.5371","FILE":"3403567","TLE_LINE2":"2 47134  53.0541 213.7594 0001694  55.5778 304.5371 15.06422147 77220","RA_OF_ASC_NODE":"213.7594","MEAN_MOTION_DOT":"0.00005261","MEAN_MOTION_DDOT":"0.0000000000000","DECAY_DATE":null,"RCS_SIZE":"LARGE","REF_FRAME":"TEME","TIME_SYSTEM":"UTC","SEMIMAJOR_AXIS":"6925.281","SITE":"AFETR","OBJECT_NAME":"STARLINK-1844","PERIOD":"95.591","ECCENTRICITY":"0.00016940","ARG_OF_PERICENTER":"55.5778","EPOCH":"2022-04-15T18:55:13.363104","INCLINATION":"53.0541","APOAPSIS":"548.319","CLASSIFICATION_TYPE":"U"},{"ECCENTRICITY":"0.00016010","ARG_OF_PERICENTER":"55.4849","EPOCH":"2022-04-15T16:12:01.308960","INCLINATION":"53.0538","APOAPSIS":"548.313","CLASSIFICATION_TYPE":"U","MEAN_MOTION_DDOT":"0.0000000000000","MEAN_MOTION_DOT":"-0.00001292","TIME_SYSTEM":"UTC","REF_FRAME":"TEME","RCS_SIZE":"LARGE","DECAY_DATE":null,"SEMIMAJOR_AXIS":"6925.339","PERIOD":"95.592","OBJECT_NAME":"STARLINK-1845","SITE":"AFETR","MEAN_ANOMALY":"304.6291","BSTAR":"-0.00006782900000","TLE_LINE2":"2 47135  53.0538 204.2786 0001601  55.4849 304.6291 15.06403071 77341","FILE":"3403567","RA_OF_ASC_NODE":"204.2786","LAUNCH_DATE":"2020-11-25","EPHEMERIS_TYPE":"0","PERIAPSIS":"546.095","MEAN_ELEMENT_THEORY":"SGP4","COUNTRY_CODE":"US","REV_AT_EPOCH":"7734","OBJECT_ID":"2020-088P","CENTER_NAME":"EARTH","ELEMENT_SET_NO":"999","GP_ID":"201341804","OBJECT_TYPE":"PAYLOAD","NORAD_CAT_ID":"47135","MEAN_MOTION":"15.06403071","TLE_LINE1":"1 47135U 20088P   22105.67501515 -.00001292  00000-0 -67829-4 0  9990"},{"EPHEMERIS_TYPE":"0","LAUNCH_DATE":"2020-11-25","PERIAPSIS":"546.100","REV_AT_EPOCH":"7722","MEAN_ELEMENT_THEORY":"SGP4","COUNTRY_CODE":"US","CENTER_NAME":"EARTH","ELEMENT_SET_NO":"999","OBJECT_ID":"2020-088Q","NORAD_CAT_ID":"47136","MEAN_MOTION":"15.06419173","GP_ID":"201342554","OBJECT_TYPE":"PAYLOAD","TLE_LINE1":"1 47136U 20088Q   22105.80678014  .00007180  00000-0  50015-3 0  9993","MEAN_ANOMALY":"293.5216","BSTAR":"0.00050015000000","TLE_LINE2":"2 47136  53.0555 213.6873 0001523  66.5933 293.5216 15.06419173 77222","FILE":"3403567","RA_OF_ASC_NODE":"213.6873","MEAN_MOTION_DOT":"0.00007180","MEAN_MOTION_DDOT":"0.0000000000000","REF_FRAME":"TEME","TIME_SYSTEM":"UTC","DECAY_DATE":null,"RCS_SIZE":"LARGE","SEMIMAJOR_AXIS":"6925.290","OBJECT_NAME":"STARLINK-1846","PERIOD":"95.591","SITE":"AFETR","ECCENTRICITY":"0.00015230","ARG_OF_PERICENTER":"66.5933","EPOCH":"2022-04-15T19:21:45.804096","INCLINATION":"53.0555","CLASSIFICATION_TYPE":"U","APOAPSIS":"548.210"}];
